     2              NAVIGATION DATA                         RINEX VERSION / TYPE
CCRINEXN V1.6.0 UX  CDDIS               30-JUL-11 15:33     PGM / RUN BY / DATE 
IGS BROADCAST EPHEMERIS FILE                                COMMENT             
    0.7451D-08  0.1490D-07 -0.5960D-07 -0.1192D-06          ION ALPHA           
    0.9216D+05  0.1311D+06 -0.6554D+05 -0.5243D+06          ION BETA            
   -0.931322574616D-09-0.888178419700D-15    61440     1647 DELTA-UTC: A0,A1,T,W
    15                                                      LEAP SECONDS        
                                                            END OF HEADER       
10 11  7 29 20  0  0.0-0.833254307508D-05-0.125055521494D-11 0.000000000000D+00
    0.600000000000D+02-0.300000000000D+02 0.480984319040D-08 0.308672457977D+01
   -0.157766044140D-05 0.102544722613D-01 0.805594027042D-05 0.515361819267D+04
    0.504000000000D+06 0.428408384323D-07-0.929550599925D+00-0.104308128357D-06
    0.948268193485D+00 0.217093750000D+03 0.705005934647D+00-0.796033194916D-08
   -0.600739291645D-09 0.100000000000D+01 0.164600000000D+04 0.000000000000D+00
    0.200000000000D+01 0.000000000000D+00-0.232830643654D-08 0.600000000000D+02
    0.496818000000D+06 0.400000000000D+01 0.000000000000D+00 0.000000000000D+00
11 11  7 29 20  0  0.0-0.172343570739D-03-0.329691829393D-11 0.000000000000D+00
    0.670000000000D+02 0.406250000000D+02 0.664634827565D-08-0.496011914464D+00
    0.218302011490D-05 0.119851677446D-01 0.652484595776D-05 0.515366022301D+04
    0.504000000000D+06-0.372529029846D-07-0.225599725747D+01 0.197440385819D-06
    0.887896398026D+00 0.212156250000D+03 0.947566213708D+00-0.923467037537D-08
    0.422874757288D-09 0.100000000000D+01 0.164600000000D+04 0.000000000000D+00
    0.200000000000D+01 0.000000000000D+00-0.116415321827D-07 0.670000000000D+02
    0.502248000000D+06 0.400000000000D+01 0.000000000000D+00 0.000000000000D+00
12 11  7 29 20  0  0.0 0.124000944197D-04 0.250111042988D-11 0.000000000000D+00
    0.650000000000D+02-0.123406250000D+03 0.446340020425D-08-0.856173575386D+00
   -0.641122460365D-05 0.365378463175D-02 0.393763184547D-05 0.515370251656D+04
    0.504000000000D+06 0.707805156708D-07 0.220856257616D+01-0.800937414169D-07
    0.975943815223D+00 0.313500000000D+03-0.962523790351D-01-0.820248452355D-08
   -0.237867050975D-09 0.100000000000D+01 0.164600000000D+04 0.000000000000D+00
    0.200000000000D+01 0.000000000000D+00-0.121071934700D-07 0.650000000000D+02
    0.496800000000D+06 0.000000000000D+00 0.000000000000D+00 0.000000000000D+00
13 11  7 29 20  0  0.0 0.258848536760D-03-0.170530256582D-11 0.000000000000D+00
    0.103000000000D+03 0.124781250000D+03 0.339585573674D-08 0.180234845013D+01
    0.644661486149D-05 0.471101258881D-02 0.111144036055D-04 0.515357573509D+04
    0.504000000000D+06 0.139698386192D-06 0.179018050466D+00 0.745058059692D-08
    0.989457594126D+00 0.179062500000D+03 0.190905804409D+01-0.742638076714D-08
    0.110361739867D-09 0.100000000000D+01 0.164600000000D+04 0.000000000000D+00
    0.280000000000D+01 0.000000000000D+00-0.111758708954D-07 0.103000000000D+03
    0.496818000000D+06 0.400000000000D+01 0.000000000000D+00 0.000000000000D+00
14 11  7 29 20  0  0.0 0.164260622114D-03 0.204636307899D-11 0.000000000000D+00
    0.330000000000D+02 0.992187500000D+02 0.356336271407D-08 0.184808507415D+01
    0.529736280441D-05 0.602648057975D-02 0.109970569611D-04 0.515370135879D+04
    0.504000000000D+06-0.124797224999D-06 0.154413092314D+00-0.122934579849D-06
    0.982453164306D+00 0.176187500000D+03-0.211164363021D+01-0.757388691136D-08
    0.839320675361D-10 0.100000000000D+01 0.164600000000D+04 0.000000000000D+00
    0.200000000000D+01 0.000000000000D+00-0.884756445885D-08 0.330000000000D+02
    0.497160000000D+06 0.000000000000D+00 0.000000000000D+00 0.000000000000D+00
15 11  7 29 20  0  0.0-0.113362446427D-03 0.193267624127D-11 0.000000000000D+00
    0.540000000000D+02 0.937187500000D+02 0.430589364347D-08 0.147647702723D+01
    0.488944351673D-05 0.348692049738D-02 0.119823962450D-04 0.515366090393D+04
    0.504000000000D+06-0.353902578354D-07 0.766039277754D-01 0.521540641785D-07
    0.949542213730D+00 0.141093750000D+03-0.630861711980D-01-0.786318467606D-08
   -0.953611150304D-10 0.100000000000D+01 0.164600000000D+04 0.000000000000D+00
    0.200000000000D+01 0.000000000000D+00-0.102445483208D-07 0.540000000000D+02
    0.496800000000D+06 0.000000000000D+00 0.000000000000D+00 0.000000000000D+00
17 11  7 29 20  0  0.0 0.180920120329D-03-0.113686837722D-11 0.000000000000D+00
    0.320000000000D+02-0.619062500000D+02 0.419981779641D-08 0.209684803078D+01
   -0.323168933392D-05 0.640291476157D-02 0.126287341118D-04 0.515379725647D+04
    0.504000000000D+06-0.158324837685D-06-0.301473689731D+01-0.447034835815D-07
    0.961973681951D+00 0.138093750000D+03-0.239336350961D+01-0.769710632966D-08
    0.331799535068D-09 0.100000000000D+01 0.164600000000D+04 0.000000000000D+00
    0.200000000000D+01 0.000000000000D+00-0.107102096081D-07 0.320000000000D+02
    0.503418000000D+06 0.400000000000D+01 0.000000000000D+00 0.000000000000D+00
18 11  7 29 20  0  0.0 0.149669591337D-03 0.193267624127D-11 0.000000000000D+00
    0.210000000000D+02-0.445937500000D+02 0.512414201251D-08-0.270214761486D+01
   -0.230781733990D-05 0.126997142797D-01 0.770948827267D-05 0.515361240768D+04
    0.504000000000D+06 0.465661287308D-07-0.936080738537D+00-0.134110450745D-06
    0.932144634560D+00 0.214468750000D+03-0.223228367871D+01-0.810962351266D-08
   -0.503949562951D-09 0.100000000000D+01 0.164600000000D+04 0.000000000000D+00
    0.200000000000D+01 0.000000000000D+00-0.107102096081D-07 0.210000000000D+02
    0.496800000000D+06 0.000000000000D+00 0.000000000000D+00 0.000000000000D+00
20 11  7 29 20  0  0.0 0.511743128300D-04 0.341060513165D-12 0.000000000000D+00
    0.100000000000D+03-0.285625000000D+02 0.522236038942D-08-0.232079549340D+01
   -0.144354999065D-05 0.448079756461D-02 0.748969614506D-05 0.515361351585D+04
    0.504000000000D+06 0.633299350738D-07-0.989986202019D+00-0.502914190292D-07
    0.932318440931D+00 0.220968750000D+03 0.128309844625D+01-0.820677041636D-08
   -0.619311511096D-09 0.100000000000D+01 0.164600000000D+04 0.000000000000D+00
    0.200000000000D+01 0.000000000000D+00-0.745058059692D-08 0.100000000000D+03
    0.496818000000D+06 0.400000000000D+01 0.000000000000D+00 0.000000000000D+00
21 11  7 29 20  0  0.0-0.161170959473D-03-0.250111042988D-11 0.000000000000D+00
    0.140000000000D+02 0.305625000000D+02 0.542022577416D-08-0.155843283453D+01
    0.153481960297D-05 0.180334128672D-01 0.519119203091D-05 0.515372642517D+04
    0.504000000000D+06 0.340864062309D-06-0.199013927068D+01-0.130385160446D-06
    0.931353754714D+00 0.260250000000D+03-0.234102504205D+01-0.832748973052D-08
    0.398230873629D-09 0.100000000000D+01 0.164600000000D+04 0.000000000000D+00
    0.200000000000D+01 0.000000000000D+00-0.116415321827D-07 0.140000000000D+02
    0.496800000000D+06 0.000000000000D+00 0.000000000000D+00 0.000000000000D+00
22 11  7 29 20  0  0.0 0.145874451846D-03-0.227373675443D-12 0.000000000000D+00
    0.700000000000D+02-0.358750000000D+02 0.522378902035D-08 0.275695990176D+01
   -0.187382102013D-05 0.589340389706D-02 0.781938433647D-05 0.515369992447D+04
    0.504000000000D+06 0.242143869400D-07-0.932074828498D+00-0.223517417908D-07
    0.929847127568D+00 0.212031250000D+03-0.198196090616D+01-0.824177187431D-08
   -0.567166481903D-09 0.100000000000D+01 0.164600000000D+04 0.000000000000D+00
    0.200000000000D+01 0.000000000000D+00-0.167638063431D-07 0.700000000000D+02
    0.496800000000D+06 0.000000000000D+00 0.000000000000D+00 0.000000000000D+00
23 11  7 29 20  0  0.0 0.288133043796D-03-0.295585778076D-11 0.000000000000D+00
    0.850000000000D+02 0.107781250000D+03 0.401516724783D-08 0.100213444199D+01
    0.569038093090D-05 0.751021190081D-02 0.111386179924D-04 0.515375468826D+04
    0.504000000000D+06 0.279396772385D-07 0.107840450113D+00 0.210478901863D-06
    0.964094494771D+00 0.166656250000D+03-0.309596213648D+01-0.771960726691D-08
   -0.457161899771D-10 0.100000000000D+01 0.164600000000D+04 0.000000000000D+00
    0.200000000000D+01 0.000000000000D+00-0.200234353542D-07 0.850000000000D+02
    0.496818000000D+06 0.400000000000D+01 0.000000000000D+00 0.000000000000D+00
24 11  7 29 20  0  0.0 0.410887412727D-03 0.329691829393D-11 0.000000000000D+00
    0.510000000000D+02 0.184062500000D+02 0.529057751665D-08 0.280637619923D+00
    0.728294253349D-06 0.642132514622D-02 0.523962080479D-05 0.515368147850D+04
    0.504000000000D+06 0.100582838059D-06-0.194432033851D+01 0.186264514923D-08
    0.947899403541D+00 0.269781250000D+03-0.241637676608D+00-0.846070956537D-08
    0.167506977338D-09 0.100000000000D+01 0.164600000000D+04 0.000000000000D+00
    0.200000000000D+01 0.000000000000D+00-0.139698386192D-08 0.510000000000D+02
    0.501240000000D+06 0.400000000000D+01 0.000000000000D+00 0.000000000000D+00
25 11  7 29 20  0  0.0 0.114575959742D-04 0.181898940355D-11 0.000000000000D+00
    0.440000000000D+02-0.122937500000D+03 0.467448042516D-08-0.242841863873D+01
   -0.640936195850D-05 0.101260747761D-02 0.359117984772D-05 0.515362267685D+04
    0.504000000000D+06 0.614672899246D-07 0.217797672760D+01-0.372529029846D-07
    0.964724714028D+00 0.313125000000D+03 0.959336785279D+00-0.831427489435D-08
   -0.242867259253D-09 0.100000000000D+01 0.164600000000D+04 0.000000000000D+00
    0.200000000000D+01 0.000000000000D+00 0.558793544769D-08 0.440000000000D+02
    0.496800000000D+06 0.000000000000D+00 0.000000000000D+00 0.000000000000D+00
